[{"OBJECT_NAME":"TOMORROW-S2","OBJECT_ID":"2024-149T","EPOCH":"2026-03-09T18:02:42.746496","MEAN_MOTION":15.30674935,"ECCENTRICITY":0.0001648,"INCLINATION":97.3857,"RA_OF_ASC_NODE":150.0385,"ARG_OF_PERICENTER":234.3331,"MEAN_ANOMALY":125.7757,"EPHEMERIS_TYPE":0,"CLASSIFICATION_TYPE":"U","NORAD_CAT_ID":60485,"ELEMENT_SET_NO":999,"REV_AT_EPOCH":8686,"BSTAR":0.00027683033,"MEAN_MOTION_DOT":8.133e-5,"MEAN_MOTION_DDOT":0},{"OBJECT_NAME":"STARLINK-34773","OBJECT_ID":"2025-161K","EPOCH":"2026-03-09T21:30:34.322112","MEAN_MOTION":15.3020046,"ECCENTRICITY":9.655e-5,"INCLINATION":53.1583,"RA_OF_ASC_NODE":293.0884,"ARG_OF_PERICENTER":88.6247,"MEAN_ANOMALY":271.4864,"EPHEMERIS_TYPE":0,"CLASSIFICATION_TYPE":"U","NORAD_CAT_ID":65024,"ELEMENT_SET_NO":999,"REV_AT_EPOCH":3535,"BSTAR":0.00079867893,"MEAN_MOTION_DOT":0.0002337,"MEAN_MOTION_DDOT":0}]
